{
  "type": "FeatureCollection",
  "features": [
    {
      "type": "Feature",
      "properties": {
        "norad_id": 40115,
        "name": "WORLDVIEW-3 (WV-3)",
        "group": "resource",
        "lat": 30.009354224095578,
        "lon": 53.95052337399893,
        "alt_km": 613.495636331947,
        "timestamp": "2025-12-12T05:47:28.429058+00:00",
        "meta_object_name": "WORLDVIEW-3 (WV-3)",
        "meta_object_id": "2014-048A",
        "meta_epoch": "2025-12-11T23:11:19.097664",
        "meta_mean_motion": 14.85508979,
        "meta_eccentricity": 0.00047176,
        "meta_inclination": 97.8613,
        "meta_ra_of_asc_node": 58.256,
        "meta_arg_of_pericenter": 187.1508,
        "meta_mean_anomaly": 172.9641,
        "meta_ephemeris_type": 0,
        "meta_classification_type": "U",
        "meta_norad_cat_id": 40115,
        "meta_element_set_no": 999,
        "meta_rev_at_epoch": 61412,
        "meta_bstar": 0.00024451221,
        "meta_mean_motion_dot": 2.058e-05,
        "meta_mean_motion_ddot": 0,
        "tle_line1": "1 40115U 14048A   25345.96619326  .00002058  00000+0  24451-3 0  9992",
        "tle_line2": "2 40115  97.8613  58.2560 0004717 187.1508 172.9641 14.85508979614122"
      },
      "geometry": {
        "type": "Point",
        "coordinates": [
          53.95052337399893,
          30.009354224095578
        ]
      }
    },
    {
      "type": "Feature",
      "properties": {
        "norad_id": 40118,
        "name": "GAOFEN-2",
        "group": "resource",
        "lat": -36.40251739735381,
        "lon": -140.5726367609266,
        "alt_km": 635.0520498131173,
        "timestamp": "2025-12-12T05:47:28.429069+00:00",
        "meta_object_name": "GAOFEN-2",
        "meta_object_id": "2014-049A",
        "meta_epoch": "2025-12-11T23:57:01.355040",
        "meta_mean_motion": 14.80607069,
        "meta_eccentricity": 0.00085634,
        "meta_inclination": 98.0381,
        "meta_ra_of_asc_node": 45.1644,
        "meta_arg_of_pericenter": 115.0257,
        "meta_mean_anomaly": 245.1845,
        "meta_ephemeris_type": 0,
        "meta_classification_type": "U",
        "meta_norad_cat_id": 40118,
        "meta_element_set_no": 999,
        "meta_rev_at_epoch": 61153,
        "meta_bstar": 0.00021227817,
        "meta_mean_motion_dot": 1.576e-05,
        "meta_mean_motion_ddot": 0,
        "tle_line1": "1 40118U 14049A   25345.99793235  .00001576  00000+0  21228-3 0  9994",
        "tle_line2": "2 40118  98.0381  45.1644 0008563 115.0257 245.1845 14.80607069611538"
      },
      "geometry": {
        "type": "Point",
        "coordinates": [
          -140.5726367609266,
          -36.40251739735381
        ]
      }
    },
    {
      "type": "Feature",
      "properties": {
        "norad_id": 40143,
        "name": "YAOGAN-21",
        "group": "resource",
        "lat": 75.10248401390716,
        "lon": -122.15730127106131,
        "alt_km": 484.23486977840184,
        "timestamp": "2025-12-12T05:47:28.429079+00:00",
        "meta_object_name": "YAOGAN-21",
        "meta_object_id": "2014-053A",
        "meta_epoch": "2025-12-12T00:36:46.186848",
        "meta_mean_motion": 15.23666761,
        "meta_eccentricity": 0.00098521,
        "meta_inclination": 97.1759,
        "meta_ra_of_asc_node": 29.3688,
        "meta_arg_of_pericenter": 44.1984,
        "meta_mean_anomaly": 316.0039,
        "meta_ephemeris_type": 0,
        "meta_classification_type": "U",
        "meta_norad_cat_id": 40143,
        "meta_element_set_no": 999,
        "meta_rev_at_epoch": 62643,
        "meta_bstar": 0.00038662304,
        "meta_mean_motion_dot": 9.22e-05,
        "meta_mean_motion_ddot": 0,
        "tle_line1": "1 40143U 14053A   25346.02553457  .00009220  00000+0  38662-3 0  9996",
        "tle_line2": "2 40143  97.1759  29.3688 0009852  44.1984 316.0039 15.23666761626438"
      },
      "geometry": {
        "type": "Point",
        "coordinates": [
          -122.15730127106131,
          75.10248401390716
        ]
      }
    },
    {
      "type": "Feature",
      "properties": {
        "norad_id": 40275,
        "name": "YAOGAN-22",
        "group": "resource",
        "lat": -48.04729986554921,
        "lon": 141.84436228804486,
        "alt_km": 1206.36499127174,
        "timestamp": "2025-12-12T05:47:28.429090+00:00",
        "meta_object_name": "YAOGAN-22",
        "meta_object_id": "2014-063A",
        "meta_epoch": "2025-12-11T22:44:23.530848",
        "meta_mean_motion": 13.15522655,
        "meta_eccentricity": 0.00059506,
        "meta_inclination": 100.742,
        "meta_ra_of_asc_node": 129.3558,
        "meta_arg_of_pericenter": 250.2271,
        "meta_mean_anomaly": 109.8199,
        "meta_ephemeris_type": 0,
        "meta_classification_type": "U",
        "meta_norad_cat_id": 40275,
        "meta_element_set_no": 999,
        "meta_rev_at_epoch": 53519,
        "meta_bstar": 3.6989629e-05,
        "meta_mean_motion_dot": -3.3e-07,
        "meta_mean_motion_ddot": 0,
        "tle_line1": "1 40275U 14063A   25345.94749457 -.00000033  00000+0  36990-4 0  9997",
        "tle_line2": "2 40275 100.7420 129.3558 0005950 250.2271 109.8199 13.15522655535190"
      },
      "geometry": {
        "type": "Point",
        "coordinates": [
          141.84436228804486,
          -48.04729986554921
        ]
      }
    },
    {
      "type": "Feature",
      "properties": {
        "norad_id": 40298,
        "name": "ASNARO",
        "group": "resource",
        "lat": 21.38213172368976,
        "lon": -114.89792411778127,
        "alt_km": 504.2232576441902,
        "timestamp": "2025-12-12T05:47:28.429101+00:00",
        "meta_object_name": "ASNARO",
        "meta_object_id": "2014-070A",
        "meta_epoch": "2025-12-12T00:21:20.150784",
        "meta_mean_motion": 15.19474657,
        "meta_eccentricity": 0.000555,
        "meta_inclination": 97.3651,
        "meta_ra_of_asc_node": 61.9782,
        "meta_arg_of_pericenter": 123.7493,
        "meta_mean_anomaly": 236.4271,
        "meta_ephemeris_type": 0,
        "meta_classification_type": "U",
        "meta_norad_cat_id": 40298,
        "meta_element_set_no": 999,
        "meta_rev_at_epoch": 61558,
        "meta_bstar": 0.0008531301,
        "meta_mean_motion_dot": 0.00018068,
        "meta_mean_motion_ddot": 0,
        "tle_line1": "1 40298U 14070A   25346.01481656  .00018068  00000+0  85313-3 0  9991",
        "tle_line2": "2 40298  97.3651  61.9782 0005550 123.7493 236.4271 15.19474657615582"
      },
      "geometry": {
        "type": "Point",
        "coordinates": [
          -114.89792411778127,
          21.38213172368976
        ]
      }
    },
    {
      "type": "Feature",
      "properties": {
        "norad_id": 40310,
        "name": "YAOGAN-24",
        "group": "resource",
        "lat": -28.231717417491154,
        "lon": -67.06624488898872,
        "alt_km": 643.5596716623359,
        "timestamp": "2025-12-12T05:47:28.429111+00:00",
        "meta_object_name": "YAOGAN-24",
        "meta_object_id": "2014-072A",
        "meta_epoch": "2025-12-11T23:58:14.428704",
        "meta_mean_motion": 14.76174862,
        "meta_eccentricity": 0.00146995,
        "meta_inclination": 98.1222,
        "meta_ra_of_asc_node": 117.0876,
        "meta_arg_of_pericenter": 140.2022,
        "meta_mean_anomaly": 220.0268,
        "meta_ephemeris_type": 0,
        "meta_classification_type": "U",
        "meta_norad_cat_id": 40310,
        "meta_element_set_no": 999,
        "meta_rev_at_epoch": 59610,
        "meta_bstar": 0.0002632367,
        "meta_mean_motion_dot": 1.77e-05,
        "meta_mean_motion_ddot": 0,
        "tle_line1": "1 40310U 14072A   25345.99877811  .00001770  00000+0  26324-3 0  9995",
        "tle_line2": "2 40310  98.1222 117.0876 0014699 140.2022 220.0268 14.76174862596101"
      },
      "geometry": {
        "type": "Point",
        "coordinates": [
          -67.06624488898872,
          -28.231717417491154
        ]
      }
    },
    {
      "type": "Feature",
      "properties": {
        "norad_id": 40336,
        "name": "CBERS 4",
        "group": "resource",
        "lat": 21.278964635799063,
        "lon": 41.003256971778335,
        "alt_km": 773.1923047631508,
        "timestamp": "2025-12-12T05:47:28.429121+00:00",
        "meta_object_name": "CBERS 4",
        "meta_object_id": "2014-079A",
        "meta_epoch": "2025-12-12T00:40:22.002816",
        "meta_mean_motion": 14.35516745,
        "meta_eccentricity": 0.00016341,
        "meta_inclination": 98.3306,
        "meta_ra_of_asc_node": 44.0687,
        "meta_arg_of_pericenter": 113.006,
        "meta_mean_anomaly": 247.1298,
        "meta_ephemeris_type": 0,
        "meta_classification_type": "U",
        "meta_norad_cat_id": 40336,
        "meta_element_set_no": 999,
        "meta_rev_at_epoch": 57710,
        "meta_bstar": 5.9399516e-05,
        "meta_mean_motion_dot": 1.29e-06,
        "meta_mean_motion_ddot": 0,
        "tle_line1": "1 40336U 14079A   25346.02803244  .00000129  00000+0  59400-4 0  9993",
        "tle_line2": "2 40336  98.3306  44.0687 0001634 113.0060 247.1298 14.35516745577105"
      },
      "geometry": {
        "type": "Point",
        "coordinates": [
          41.003256971778335,
          21.278964635799063
        ]
      }
    }
  ]
}